[{"OBJECT_NAME":"STARLINK-35368","OBJECT_ID":"2025-221H","EPOCH":"2026-03-09T06:34:47.184672","MEAN_MOTION":15.30197286,"ECCENTRICITY":0.00013179,"INCLINATION":53.1586,"RA_OF_ASC_NODE":90.7083,"ARG_OF_PERICENTER":62.0331,"MEAN_ANOMALY":298.0803,"EPHEMERIS_TYPE":0,"CLASSIFICATION_TYPE":"U","NORAD_CAT_ID":65830,"ELEMENT_SET_NO":999,"REV_AT_EPOCH":2597,"BSTAR":0.0008794841,"MEAN_MOTION_DOT":0.00025777,"MEAN_MOTION_DDOT":0},{"OBJECT_NAME":"OBJECT F","OBJECT_ID":"2021-022F","EPOCH":"2026-03-09T23:37:37.165152","MEAN_MOTION":15.31317672,"ECCENTRICITY":0.00120882,"INCLINATION":97.3982,"RA_OF_ASC_NODE":329.8375,"ARG_OF_PERICENTER":85.9268,"MEAN_ANOMALY":274.3355,"EPHEMERIS_TYPE":0,"CLASSIFICATION_TYPE":"U","NORAD_CAT_ID":47937,"ELEMENT_SET_NO":999,"REV_AT_EPOCH":27452,"BSTAR":0.00038690553,"MEAN_MOTION_DOT":0.00011656,"MEAN_MOTION_DDOT":0}]
